[{"OBJECT_NAME":"YAOGAN-36 02B","OBJECT_ID":"2022-133B","EPOCH":"2026-03-09T22:42:31.775904","MEAN_MOTION":15.30199518,"ECCENTRICITY":0.00056841,"INCLINATION":34.9983,"RA_OF_ASC_NODE":22.5268,"ARG_OF_PERICENTER":273.0351,"MEAN_ANOMALY":86.9715,"EPHEMERIS_TYPE":0,"CLASSIFICATION_TYPE":"U","NORAD_CAT_ID":54043,"ELEMENT_SET_NO":999,"REV_AT_EPOCH":18962,"BSTAR":0.00051218814,"MEAN_MOTION_DOT":0.00015352,"MEAN_MOTION_DDOT":0},{"OBJECT_NAME":"STARLINK-34821","OBJECT_ID":"2025-176B","EPOCH":"2026-03-09T12:09:27.470016","MEAN_MOTION":15.30192398,"ECCENTRICITY":0.00010937,"INCLINATION":53.159,"RA_OF_ASC_NODE":153.4898,"ARG_OF_PERICENTER":99.2619,"MEAN_ANOMALY":260.8506,"EPHEMERIS_TYPE":0,"CLASSIFICATION_TYPE":"U","NORAD_CAT_ID":65199,"ELEMENT_SET_NO":999,"REV_AT_EPOCH":3303,"BSTAR":0.00088866076,"MEAN_MOTION_DOT":0.00026046,"MEAN_MOTION_DDOT":0}]
